ATLAS CENTAUR R/B       
1 06155U 72065B   26041.26077759  .00001419  00000+0  19675-3 0  9998
2 06155  35.0012 106.4848 0033237 140.1216 220.1934 14.77605499837207
SL-8 R/B                
1 08459U 75112B   26041.51391774  .00000190  00000+0  71089-4 0  9990
2 08459  74.0591  68.9064 0015324 171.8649 188.2756 14.38189860627963
SL-3 R/B                
1 10114U 77057B   26041.58298577  .00013698  00000+0  29505-3 0  9997
2 10114  97.5734 212.3341 0007905  28.8489 331.3195 15.44701042664144
SEASAT 1                
1 10967U 78064A   26041.03453020  .00000315  00000+0  12648-3 0  9990
2 10967 108.0161  67.4618 0001618 292.4401  67.6573 14.46137708502510
SL-14 R/B               
1 11267U 79011B   26041.21560489  .00000692  00000+0  65844-4 0  9990
2 11267  82.5252 122.6397 0016980 145.0466 215.1872 14.91874432524687
SL-8 R/B                
1 11574U 79089B   26041.55647193  .00000313  00000+0  10260-3 0  9992
2 11574  74.0698 141.2690 0016648 317.2456  42.7404 14.42333793432199
SL-14 R/B               
1 11672U 80005B   26041.21057901  .00000780  00000+0  76475-4 0  9995
2 11672  82.5175 333.2942 0014146 253.9078 106.0584 14.90893951472391
SL-8 R/B                
1 12139U 81003B   26041.24225955  .00016788  00000+0  44478-3 0  9994
2 12139  82.9390 315.3829 0263040 274.4652  82.6574 15.09976484310532
SL-3 R/B                
1 12465U 81046B   26041.39318863  .00013324  00000+0  31746-3 0  9997
2 12465  81.2339 322.4955 0020756 111.7822 248.5631 15.41225046434222
SL-3 R/B                
1 12904U 81103B   26041.54019921  .00004829  00000+0  21591-3 0  9996
2 12904  81.1564 245.2780 0013679  20.6322 339.5458 15.21042889969104
SL-3 R/B                
1 13068U 82013B   26041.55993512  .00005762  00000+0  25186-3 0  9998
2 13068  81.1743 192.5551 0021683 271.3864  88.4884 15.21711389400229
SL-3 R/B                
1 13154U 82039B   26041.55425148  .00002328  00000+0  14065-3 0  9996
2 13154  81.1610 247.2399 0030071  53.2070 307.1908 15.09928112377549
