CCSDS_OMM_VERS = 2.0
CREATION_DATE  = 
ORIGINATOR     = 

OBJECT_NAME    = ATLAS CENTAUR R/B
OBJECT_ID      = 1972-065B
CENTER_NAME    = EARTH
REF_FRAME      = TEME
TIME_SYSTEM    = UTC
MEAN_ELEMENT_THEORY = SGP/SGP4

EPOCH          = 2026-02-10T06:15:31.183776
MEAN_MOTION    = 14.77605499
ECCENTRICITY   = .0033237
INCLINATION    = 35.0012
RA_OF_ASC_NODE = 106.4848
ARG_OF_PERICENTER = 140.1216
MEAN_ANOMALY   = 220.1934

EPHEMERIS_TYPE = 0
CLASSIFICATION_TYPE = U
NORAD_CAT_ID   = 6155
ELEMENT_SET_NO = 999
REV_AT_EPOCH   = 83720
BSTAR          = .19675E-3
MEAN_MOTION_DOT = .1419E-4
MEAN_MOTION_DDOT = 0

CCSDS_OMM_VERS = 2.0
CREATION_DATE  = 
ORIGINATOR     = 

OBJECT_NAME    = SL-8 R/B
OBJECT_ID      = 1975-112B
CENTER_NAME    = EARTH
REF_FRAME      = TEME
TIME_SYSTEM    = UTC
MEAN_ELEMENT_THEORY = SGP/SGP4

EPOCH          = 2026-02-10T12:20:02.492736
MEAN_MOTION    = 14.38189860
ECCENTRICITY   = .00153243
INCLINATION    = 74.0591
RA_OF_ASC_NODE = 68.9064
ARG_OF_PERICENTER = 171.8649
MEAN_ANOMALY   = 188.2756

EPHEMERIS_TYPE = 0
CLASSIFICATION_TYPE = U
NORAD_CAT_ID   = 8459
ELEMENT_SET_NO = 999
REV_AT_EPOCH   = 62796
BSTAR          = .71089339E-4
MEAN_MOTION_DOT = .19E-5
MEAN_MOTION_DDOT = 0

CCSDS_OMM_VERS = 2.0
CREATION_DATE  = 
ORIGINATOR     = 

OBJECT_NAME    = SL-3 R/B
OBJECT_ID      = 1977-057B
CENTER_NAME    = EARTH
REF_FRAME      = TEME
TIME_SYSTEM    = UTC
MEAN_ELEMENT_THEORY = SGP/SGP4

EPOCH          = 2026-02-10T13:59:29.970528
MEAN_MOTION    = 15.44701042
ECCENTRICITY   = .0007905
INCLINATION    = 97.5734
RA_OF_ASC_NODE = 212.3341
ARG_OF_PERICENTER = 28.8489
MEAN_ANOMALY   = 331.3195

EPHEMERIS_TYPE = 0
CLASSIFICATION_TYPE = U
NORAD_CAT_ID   = 10114
ELEMENT_SET_NO = 999
REV_AT_EPOCH   = 66414
BSTAR          = .29504589E-3
MEAN_MOTION_DOT = .13698E-3
MEAN_MOTION_DDOT = 0

CCSDS_OMM_VERS = 2.0
CREATION_DATE  = 
ORIGINATOR     = 

OBJECT_NAME    = SEASAT 1
OBJECT_ID      = 1978-064A
CENTER_NAME    = EARTH
REF_FRAME      = TEME
TIME_SYSTEM    = UTC
MEAN_ELEMENT_THEORY = SGP/SGP4

EPOCH          = 2026-02-10T00:49:43.409280
MEAN_MOTION    = 14.46137708
ECCENTRICITY   = .00016189
INCLINATION    = 108.0161
RA_OF_ASC_NODE = 67.4618
ARG_OF_PERICENTER = 292.4401
MEAN_ANOMALY   = 67.6573

EPHEMERIS_TYPE = 0
CLASSIFICATION_TYPE = U
NORAD_CAT_ID   = 10967
ELEMENT_SET_NO = 999
REV_AT_EPOCH   = 50251
BSTAR          = .12648457E-3
MEAN_MOTION_DOT = .315E-5
MEAN_MOTION_DDOT = 0

CCSDS_OMM_VERS = 2.0
CREATION_DATE  = 
ORIGINATOR     = 

OBJECT_NAME    = SL-14 R/B
OBJECT_ID      = 1979-011B
CENTER_NAME    = EARTH
REF_FRAME      = TEME
TIME_SYSTEM    = UTC
MEAN_ELEMENT_THEORY = SGP/SGP4

EPOCH          = 2026-02-10T05:10:28.262496
MEAN_MOTION    = 14.91874432
ECCENTRICITY   = .001698
INCLINATION    = 82.5252
RA_OF_ASC_NODE = 122.6397
ARG_OF_PERICENTER = 145.0466
MEAN_ANOMALY   = 215.1872

EPHEMERIS_TYPE = 0
CLASSIFICATION_TYPE = U
NORAD_CAT_ID   = 11267
ELEMENT_SET_NO = 999
REV_AT_EPOCH   = 52468
BSTAR          = .65844E-4
MEAN_MOTION_DOT = .692E-5
MEAN_MOTION_DDOT = 0

CCSDS_OMM_VERS = 2.0
CREATION_DATE  = 
ORIGINATOR     = 

OBJECT_NAME    = SL-8 R/B
OBJECT_ID      = 1979-089B
CENTER_NAME    = EARTH
REF_FRAME      = TEME
TIME_SYSTEM    = UTC
MEAN_ELEMENT_THEORY = SGP/SGP4

EPOCH          = 2026-02-10T13:21:19.174752
MEAN_MOTION    = 14.42333793
ECCENTRICITY   = .00166484
INCLINATION    = 74.0698
RA_OF_ASC_NODE = 141.2690
ARG_OF_PERICENTER = 317.2456
MEAN_ANOMALY   = 42.7404

EPHEMERIS_TYPE = 0
CLASSIFICATION_TYPE = U
NORAD_CAT_ID   = 11574
ELEMENT_SET_NO = 999
REV_AT_EPOCH   = 43219
BSTAR          = .10259953E-3
MEAN_MOTION_DOT = .313E-5
MEAN_MOTION_DDOT = 0

CCSDS_OMM_VERS = 2.0
CREATION_DATE  = 
ORIGINATOR     = 

OBJECT_NAME    = SL-14 R/B
OBJECT_ID      = 1980-005B
CENTER_NAME    = EARTH
REF_FRAME      = TEME
TIME_SYSTEM    = UTC
MEAN_ELEMENT_THEORY = SGP/SGP4

EPOCH          = 2026-02-10T05:03:14.026464
MEAN_MOTION    = 14.90893951
ECCENTRICITY   = .0014146
INCLINATION    = 82.5175
RA_OF_ASC_NODE = 333.2942
ARG_OF_PERICENTER = 253.9078
MEAN_ANOMALY   = 106.0584

EPHEMERIS_TYPE = 0
CLASSIFICATION_TYPE = U
NORAD_CAT_ID   = 11672
ELEMENT_SET_NO = 999
REV_AT_EPOCH   = 47239
BSTAR          = .76475E-4
MEAN_MOTION_DOT = .78E-5
MEAN_MOTION_DDOT = 0

CCSDS_OMM_VERS = 2.0
CREATION_DATE  = 
ORIGINATOR     = 

OBJECT_NAME    = SL-8 R/B
OBJECT_ID      = 1981-003B
CENTER_NAME    = EARTH
REF_FRAME      = TEME
TIME_SYSTEM    = UTC
MEAN_ELEMENT_THEORY = SGP/SGP4

EPOCH          = 2026-02-10T05:48:51.225120
MEAN_MOTION    = 15.09976484
ECCENTRICITY   = .026304
INCLINATION    = 82.9390
RA_OF_ASC_NODE = 315.3829
ARG_OF_PERICENTER = 274.4652
MEAN_ANOMALY   = 82.6574

EPHEMERIS_TYPE = 0
CLASSIFICATION_TYPE = U
NORAD_CAT_ID   = 12139
ELEMENT_SET_NO = 999
REV_AT_EPOCH   = 31053
BSTAR          = .44478E-3
MEAN_MOTION_DOT = .16788E-3
MEAN_MOTION_DDOT = 0

CCSDS_OMM_VERS = 2.0
CREATION_DATE  = 
ORIGINATOR     = 

OBJECT_NAME    = SL-3 R/B
OBJECT_ID      = 1981-046B
CENTER_NAME    = EARTH
REF_FRAME      = TEME
TIME_SYSTEM    = UTC
MEAN_ELEMENT_THEORY = SGP/SGP4

EPOCH          = 2026-02-10T09:26:11.497632
MEAN_MOTION    = 15.41225046
ECCENTRICITY   = .00207569
INCLINATION    = 81.2339
RA_OF_ASC_NODE = 322.4955
ARG_OF_PERICENTER = 111.7822
MEAN_ANOMALY   = 248.5631

EPHEMERIS_TYPE = 0
CLASSIFICATION_TYPE = U
NORAD_CAT_ID   = 12465
ELEMENT_SET_NO = 999
REV_AT_EPOCH   = 43422
BSTAR          = .31745856E-3
MEAN_MOTION_DOT = .13324E-3
MEAN_MOTION_DDOT = 0

CCSDS_OMM_VERS = 2.0
CREATION_DATE  = 
ORIGINATOR     = 

OBJECT_NAME    = SL-3 R/B
OBJECT_ID      = 1981-103B
CENTER_NAME    = EARTH
REF_FRAME      = TEME
TIME_SYSTEM    = UTC
MEAN_ELEMENT_THEORY = SGP/SGP4

EPOCH          = 2026-02-10T12:57:53.211744
MEAN_MOTION    = 15.21042889
ECCENTRICITY   = .00136793
INCLINATION    = 81.1564
RA_OF_ASC_NODE = 245.2780
ARG_OF_PERICENTER = 20.6322
MEAN_ANOMALY   = 339.5458

EPHEMERIS_TYPE = 0
CLASSIFICATION_TYPE = U
NORAD_CAT_ID   = 12904
ELEMENT_SET_NO = 999
REV_AT_EPOCH   = 96910
BSTAR          = .21591033E-3
MEAN_MOTION_DOT = .4829E-4
MEAN_MOTION_DDOT = 0

CCSDS_OMM_VERS = 2.0
CREATION_DATE  = 
ORIGINATOR     = 

OBJECT_NAME    = SL-3 R/B
OBJECT_ID      = 1982-013B
CENTER_NAME    = EARTH
REF_FRAME      = TEME
TIME_SYSTEM    = UTC
MEAN_ELEMENT_THEORY = SGP/SGP4

EPOCH          = 2026-02-10T13:26:18.394368
MEAN_MOTION    = 15.21711389
ECCENTRICITY   = .00216838
INCLINATION    = 81.1743
RA_OF_ASC_NODE = 192.5551
ARG_OF_PERICENTER = 271.3864
MEAN_ANOMALY   = 88.4884

EPHEMERIS_TYPE = 0
CLASSIFICATION_TYPE = U
NORAD_CAT_ID   = 13068
ELEMENT_SET_NO = 999
REV_AT_EPOCH   = 40022
BSTAR          = .25186233E-3
MEAN_MOTION_DOT = .5762E-4
MEAN_MOTION_DDOT = 0

CCSDS_OMM_VERS = 2.0
CREATION_DATE  = 
ORIGINATOR     = 

OBJECT_NAME    = SL-3 R/B
OBJECT_ID      = 1982-039B
CENTER_NAME    = EARTH
REF_FRAME      = TEME
TIME_SYSTEM    = UTC
MEAN_ELEMENT_THEORY = SGP/SGP4

EPOCH          = 2026-02-10T13:18:07.327872
MEAN_MOTION    = 15.09928112
ECCENTRICITY   = .00300711
INCLINATION    = 81.1610
RA_OF_ASC_NODE = 247.2399
ARG_OF_PERICENTER = 53.2070
MEAN_ANOMALY   = 307.1908

EPHEMERIS_TYPE = 0
CLASSIFICATION_TYPE = U
NORAD_CAT_ID   = 13154
ELEMENT_SET_NO = 999
REV_AT_EPOCH   = 37754
BSTAR          = .14065494E-3
MEAN_MOTION_DOT = .2328E-4
MEAN_MOTION_DDOT = 0

